[{"OBJECT_NAME":"FLOCK 4H-31","OBJECT_ID":"2025-276BW","EPOCH":"2026-03-09T04:12:33.777216","MEAN_MOTION":15.18403847,"ECCENTRICITY":0.00040262,"INCLINATION":97.4236,"RA_OF_ASC_NODE":143.3458,"ARG_OF_PERICENTER":29.5854,"MEAN_ANOMALY":330.5607,"EPHEMERIS_TYPE":0,"CLASSIFICATION_TYPE":"U","NORAD_CAT_ID":66734,"ELEMENT_SET_NO":999,"REV_AT_EPOCH":1523,"BSTAR":0.00041894151,"MEAN_MOTION_DOT":8.555e-5,"MEAN_MOTION_DDOT":0},{"OBJECT_NAME":"HAWK-13C","OBJECT_ID":"2026-004AG","EPOCH":"2026-03-09T21:38:59.886528","MEAN_MOTION":15.18214635,"ECCENTRICITY":0.00046883,"INCLINATION":97.4593,"RA_OF_ASC_NODE":69.4519,"ARG_OF_PERICENTER":342.652,"MEAN_ANOMALY":17.4553,"EPHEMERIS_TYPE":0,"CLASSIFICATION_TYPE":"U","NORAD_CAT_ID":67393,"ELEMENT_SET_NO":999,"REV_AT_EPOCH":869,"BSTAR":0.00032608519,"MEAN_MOTION_DOT":6.606e-5,"MEAN_MOTION_DDOT":0}]
